SENTINEL-6              
1 46984U 20086A   24154.47528320 -.00000067  00000+0 -27562-4 0  9994
2 46984  66.0414 241.8254 0007878 270.5815  89.4297 12.80928263164942
